[{"OBJECT_NAME":"GAOFEN-11 03","OBJECT_ID":"2021-107A","EPOCH":"2026-03-09T22:48:17.334432","MEAN_MOTION":15.23762465,"ECCENTRICITY":0.00095153,"INCLINATION":97.2228,"RA_OF_ASC_NODE":116.8716,"ARG_OF_PERICENTER":54.6956,"MEAN_ANOMALY":305.517,"EPHEMERIS_TYPE":0,"CLASSIFICATION_TYPE":"U","NORAD_CAT_ID":49492,"ELEMENT_SET_NO":999,"REV_AT_EPOCH":23952,"BSTAR":0.00031083054,"MEAN_MOTION_DOT":7.418e-5,"MEAN_MOTION_DDOT":0},{"OBJECT_NAME":"STARLINK-30174","OBJECT_ID":"2023-119H","EPOCH":"2026-03-09T22:00:01.999584","MEAN_MOTION":15.18511119,"ECCENTRICITY":0.00012658,"INCLINATION":43.0001,"RA_OF_ASC_NODE":79.6041,"ARG_OF_PERICENTER":257.8733,"MEAN_ANOMALY":298.9214,"EPHEMERIS_TYPE":0,"CLASSIFICATION_TYPE":"U","NORAD_CAT_ID":57609,"ELEMENT_SET_NO":999,"REV_AT_EPOCH":577,"BSTAR":0.055377624,"MEAN_MOTION_DOT":0.01257837,"MEAN_MOTION_DDOT":0}]
